#dV2019  9 27  0  0  0.00000000    8640 U+u   IGS14 FIT TUD 
## 2072 432000.00000000    10.00000000 58753 0.0000000000000
+    1   L47  0  0  0  0  0  0  0  0  0  0  0  0  0  0  0  0                          
+          0  0  0  0  0  0  0  0  0  0  0  0  0  0  0  0  0                          
+          0  0  0  0  0  0  0  0  0  0  0  0  0  0  0  0  0                          
+          0  0  0  0  0  0  0  0  0  0  0  0  0  0  0  0  0                          
+          0  0  0  0  0  0  0  0  0  0  0  0  0  0  0  0  0                          
++         0  0  0  0  0  0  0  0  0  0  0  0  0  0  0  0  0                          
++         0  0  0  0  0  0  0  0  0  0  0  0  0  0  0  0  0                          
++         0  0  0  0  0  0  0  0  0  0  0  0  0  0  0  0  0                          
++         0  0  0  0  0  0  0  0  0  0  0  0  0  0  0  0  0                          
++         0  0  0  0  0  0  0  0  0  0  0  0  0  0  0  0  0                          
%c M  cc GPS ccc cccc cccc cccc cccc ccccc ccccc ccccc ccccc                          
%c cc cc ccc ccc cccc cccc cccc cccc ccccc ccccc ccccc ccccc                          
%f  0.0000000  0.000000000  0.00000000000  0.000000000000000                          
%f  0.0000000  0.000000000  0.00000000000  0.000000000000000                          
%i    0    0    0    0      0      0      0      0         0                          
%i    0    0    0    0      0      0      0      0         0                          
/* Created by: RDOD_AR_WGT                                                            
/* Setup     : SWARMA.19.270_RDOD_AR.inp                                              
/* Executed  : 10-May-2021 19:58 UTC, by swarmgen@euclid2.lr.tudelft.nl               
/*                                                                                    
*  2019 09 27 08 33 20.00000000                             
PL47   -17.6544274 -4698.4569077  4925.9016405 999999.999999
VL47  1498.4706844-55334.9629131-52619.9075976 999999.999999
*  2019 09 27 08 33 30.00000000                             
PL47   -16.1950900 -4753.4968846  4872.9714670 999999.999999
VL47  1420.3175040-54743.8172958-53239.3270793 999999.999999
*  2019 09 27 08 33 40.00000000                             
PL47   -14.8135626 -4807.9422076  4819.4252238 999999.999999
VL47  1342.8536180-54145.6675631-53852.0341312 999999.999999
*  2019 09 27 08 33 50.00000000                             
PL47   -13.5091464 -4861.7859104  4765.2696623 999999.999999
VL47  1266.0985452-53540.5897675-54457.9506857 999999.999999
*  2019 09 27 08 34 00.00000000                             
PL47   -12.2811226 -4915.0211034  4710.5116117 999999.999999
VL47  1190.0723378-52928.6608550-55056.9995737 999999.999999
*  2019 09 27 08 34 10.00000000                             
PL47   -11.1287524 -4967.6409743  4655.1579778 999999.999999
VL47  1114.7941641-52309.9586383-55649.1045040 999999.999999
*  2019 09 27 08 34 20.00000000                             
PL47   -10.0512783 -5019.6387891  4599.2157425 999999.999999
VL47  1040.2837415-51684.5618030-56234.1900460 999999.999999
*  2019 09 27 08 34 30.00000000                             
PL47    -9.0479227 -5071.0078929  4542.6919624 999999.999999
VL47   966.5601426-51052.5499181-56812.1816318 999999.999999
*  2019 09 27 08 34 40.00000000                             
PL47    -8.1178896 -5121.7417107  4485.5937684 999999.999999
VL47   893.6417973-50414.0034399-57383.0055749 999999.999999
*  2019 09 27 08 34 50.00000000                             
PL47    -7.2603644 -5171.8337487  4427.9283647 999999.999999
VL47   821.5475863-49769.0037016-57946.5890922 999999.999999
*  2019 09 27 08 35 00.00000000                             
PL47    -6.4745136 -5221.2775944  4369.7030277 999999.999999
VL47   750.2958909-49117.6328875-58502.8603155 999999.999999
*  2019 09 27 08 35 10.00000000                             
PL47    -5.7594858 -5270.0669184  4310.9251052 999999.999999
VL47   679.9045637-48459.9740120-59051.7482876 999999.999999
*  2019 09 27 08 35 20.00000000                             
PL47    -5.1144116 -5318.1954744  4251.6020155 999999.999999
VL47   610.3919514-47796.1109106-59593.1829526 999999.999999
*  2019 09 27 08 35 30.00000000                             
PL47    -4.5384031 -5365.6571004  4191.7412468 999999.999999
VL47   541.7757334-47126.1282438-60127.0951489 999999.999999
*  2019 09 27 08 35 40.00000000                             
PL47    -4.0305556 -5412.4457195  4131.3503555 999999.999999
VL47   474.0729168-46450.1115063-60653.4166159 999999.999999
*  2019 09 27 08 35 50.00000000                             
PL47    -3.5899469 -5458.5553408  4070.4369662 999999.999999
VL47   407.3009969-45768.1470359-61172.0800127 999999.999999
*  2019 09 27 08 36 00.00000000                             
PL47    -3.2156377 -5503.9800600  4009.0087703 999999.999999
VL47   341.4769449-45080.3220099-61683.0189427 999999.999999
*  2019 09 27 08 36 10.00000000                             
PL47    -2.9066716 -5548.7140606  3947.0735250 999999.999999
VL47   276.6171783-44386.7244369-62186.1679783 999999.999999
*  2019 09 27 08 36 20.00000000                             
PL47    -2.6620762 -5592.7516143  3884.6390525 999999.999999
VL47   212.7386335-43687.4431425-62681.4626829 999999.999999
*  2019 09 27 08 36 30.00000000                             
PL47    -2.4808619 -5636.0870822  3821.7132389 999999.999999
VL47   149.8575433-42982.5677507-63168.8396307 999999.999999
*  2019 09 27 08 36 40.00000000                             
PL47    -2.3620235 -5678.7149153  3758.3040333 999999.999999
VL47    87.9894205-42272.1886626-63648.2364218 999999.999999
*  2019 09 27 08 36 50.00000000                             
PL47    -2.3045400 -5720.6296553  3694.4194466 999999.999999
VL47    27.1503913-41556.3970354-64119.5916934 999999.999999
*  2019 09 27 08 37 00.00000000                             
PL47    -2.3073746 -5761.8259358  3630.0675505 999999.999999
VL47   -32.6444605-40835.2847623-64582.8451292 999999.999999
*  2019 09 27 08 37 10.00000000                             
PL47    -2.3694756 -5802.2984822  3565.2564767 999999.999999
VL47   -91.3794234-40108.9444528-65037.9374664 999999.999999
*  2019 09 27 08 37 20.00000000                             
PL47    -2.4897752 -5842.0421131  3499.9944154 999999.999999
VL47  -149.0395428-39377.4694107-65484.8104991 999999.999999
*  2019 09 27 08 37 30.00000000                             
PL47    -2.6671917 -5881.0517407  3434.2896145 999999.999999
VL47  -205.6106155-38640.9536187-65923.4070712 999999.999999
*  2019 09 27 08 37 40.00000000                             
PL47    -2.9006285 -5919.3223716  3368.1503788 999999.999999
VL47  -261.0779219-37899.4917372-66353.6710686 999999.999999
*  2019 09 27 08 37 50.00000000                             
PL47    -3.1889749 -5956.8491073  3301.5850683 999999.999999
VL47  -315.4273244-37153.1791164-66775.5474245 999999.999999
*  2019 09 27 08 38 00.00000000                             
PL47    -3.5311060 -5993.6271450  3234.6020978 999999.999999
VL47  -368.6452864-36402.1118041-67188.9821480 999999.999999
*  2019 09 27 08 38 10.00000000                             
PL47    -3.9258836 -6029.6517782  3167.2099355 999999.999999
VL47  -420.7177203-35646.3865287-67593.9223673 999999.999999
*  2019 09 27 08 38 20.00000000                             
PL47    -4.3721552 -6064.9183978  3099.4171018 999999.999999
VL47  -471.6313184-34886.1006558-67990.3163618 999999.999999
*  2019 09 27 08 38 30.00000000                             
PL47    -4.8687558 -6099.4224920  3031.2321684 999999.999999
VL47  -521.3735700-34121.3521350-68378.1135723 999999.999999
*  2019 09 27 08 38 40.00000000                             
PL47    -5.4145075 -6133.1596473  2962.6637567 999999.999999
VL47  -569.9314497-33352.2394549-68757.2645904 999999.999999
*  2019 09 27 08 38 50.00000000                             
PL47    -6.0082198 -6166.1255492  2893.7205374 999999.999999
VL47  -617.2925655-32578.8616075-69127.7211363 999999.999999
*  2019 09 27 08 39 00.00000000                             
PL47    -6.6486898 -6198.3159820  2824.4112284 999999.999999
VL47  -663.4451773-31801.3180655-69489.4360245 999999.999999
*  2019 09 27 08 39 10.00000000                             
PL47    -7.3347032 -6229.7268301  2754.7445946 999999.999999
VL47  -708.3770047-31019.7087830-69842.3631198 999999.999999
*  2019 09 27 08 39 20.00000000                             
PL47    -8.0650331 -6260.3540778  2684.7294465 999999.999999
VL47  -752.0765971-30234.1342260-70186.4572967 999999.999999
*  2019 09 27 08 39 30.00000000                             
PL47    -8.8384421 -6290.1938104  2614.3746390 999999.999999
VL47  -794.5333354-29444.6954316-70521.6744324 999999.999999
*  2019 09 27 08 39 40.00000000                             
PL47    -9.6536817 -6319.2422145  2543.6890710 999999.999999
VL47  -835.7360571-28651.4940630-70847.9714458 999999.999999
*  2019 09 27 08 39 50.00000000                             
PL47   -10.5094927 -6347.4955784  2472.6816835 999999.999999
VL47  -875.6742278-27854.6324235-71165.3063702 999999.999999
*  2019 09 27 08 40 00.00000000                             
PL47   -11.4046054 -6374.9502935  2401.3614592 999999.999999
VL47  -914.3379463-27054.2134231-71473.6384220 999999.999999
*  2019 09 27 08 40 10.00000000                             
PL47   -12.3377403 -6401.6028540  2329.7374208 999999.999999
VL47  -951.7167158-26250.3405195-71772.9280408 999999.999999
*  2019 09 27 08 40 20.00000000                             
PL47   -13.3076073 -6427.4498579  2257.8186301 999999.999999
VL47  -987.8008530-25443.1176529-72063.1368933 999999.999999
*  2019 09 27 08 40 30.00000000                             
PL47   -14.3129075 -6452.4880074  2185.6141863 999999.999999
VL47 -1022.5814983-24632.6492031-72344.2278584 999999.999999
EOF                                                         
